CCSDS_OMM_VERS = 2.0
CREATION_DATE  = 
ORIGINATOR     = 

OBJECT_NAME    = STARLINK-35262
OBJECT_ID      = 2025-221AA
CENTER_NAME    = EARTH
REF_FRAME      = TEME
TIME_SYSTEM    = UTC
MEAN_ELEMENT_THEORY = SGP/SGP4

EPOCH          = 2025-10-28T12:52:58.523808
MEAN_MOTION    = 15.49334286
ECCENTRICITY   = .00015092
INCLINATION    = 53.1597
RA_OF_ASC_NODE = 343.3540
ARG_OF_PERICENTER = 87.3258
MEAN_ANOMALY   = 272.7924

EPHEMERIS_TYPE = 0
CLASSIFICATION_TYPE = U
NORAD_CAT_ID   = 65847
ELEMENT_SET_NO = 999
REV_AT_EPOCH   = 583
BSTAR          = .17767315E-2
MEAN_MOTION_DOT = .99726E-3
MEAN_MOTION_DDOT = 0

CCSDS_OMM_VERS = 2.0
CREATION_DATE  = 
ORIGINATOR     = 

OBJECT_NAME    = STARLINK-35308
OBJECT_ID      = 2025-221AB
CENTER_NAME    = EARTH
REF_FRAME      = TEME
TIME_SYSTEM    = UTC
MEAN_ELEMENT_THEORY = SGP/SGP4

EPOCH          = 2025-10-28T12:54:27.511488
MEAN_MOTION    = 15.49324125
ECCENTRICITY   = .00013526
INCLINATION    = 53.1594
RA_OF_ASC_NODE = 343.3610
ARG_OF_PERICENTER = 94.1711
MEAN_ANOMALY   = 265.9453

EPHEMERIS_TYPE = 0
CLASSIFICATION_TYPE = U
NORAD_CAT_ID   = 65848
ELEMENT_SET_NO = 999
REV_AT_EPOCH   = 583
BSTAR          = .14338273E-2
MEAN_MOTION_DOT = .80161E-3
MEAN_MOTION_DDOT = 0

CCSDS_OMM_VERS = 2.0
CREATION_DATE  = 
ORIGINATOR     = 

OBJECT_NAME    = STARLINK-35231
OBJECT_ID      = 2025-221AC
CENTER_NAME    = EARTH
REF_FRAME      = TEME
TIME_SYSTEM    = UTC
MEAN_ELEMENT_THEORY = SGP/SGP4

EPOCH          = 2025-10-28T09:47:41.146368
MEAN_MOTION    = 15.49335270
ECCENTRICITY   = .00012694
INCLINATION    = 53.1604
RA_OF_ASC_NODE = 343.9710
ARG_OF_PERICENTER = 77.0590
MEAN_ANOMALY   = 283.0561

EPHEMERIS_TYPE = 0
CLASSIFICATION_TYPE = U
NORAD_CAT_ID   = 65849
ELEMENT_SET_NO = 999
REV_AT_EPOCH   = 581
BSTAR          = .19482987E-2
MEAN_MOTION_DOT = .109541E-2
MEAN_MOTION_DDOT = 0

CCSDS_OMM_VERS = 2.0
CREATION_DATE  = 
ORIGINATOR     = 

OBJECT_NAME    = STARLINK-35252
OBJECT_ID      = 2025-221AD
CENTER_NAME    = EARTH
REF_FRAME      = TEME
TIME_SYSTEM    = UTC
MEAN_ELEMENT_THEORY = SGP/SGP4

EPOCH          = 2025-10-28T12:52:28.982784
MEAN_MOTION    = 15.49342021
ECCENTRICITY   = .00012954
INCLINATION    = 53.1601
RA_OF_ASC_NODE = 343.3514
ARG_OF_PERICENTER = 84.5724
MEAN_ANOMALY   = 275.5433

EPHEMERIS_TYPE = 0
CLASSIFICATION_TYPE = U
NORAD_CAT_ID   = 65850
ELEMENT_SET_NO = 999
REV_AT_EPOCH   = 583
BSTAR          = .18115226E-2
MEAN_MOTION_DOT = .101741E-2
MEAN_MOTION_DDOT = 0

CCSDS_OMM_VERS = 2.0
CREATION_DATE  = 
ORIGINATOR     = 

OBJECT_NAME    = SHIYAN-30 01
OBJECT_ID      = 2025-222A
CENTER_NAME    = EARTH
REF_FRAME      = TEME
TIME_SYSTEM    = UTC
MEAN_ELEMENT_THEORY = SGP/SGP4

EPOCH          = 2025-10-28T17:31:58.071072
MEAN_MOTION    = 14.92998183
ECCENTRICITY   = .0006172
INCLINATION    = 34.9878
RA_OF_ASC_NODE = 210.9460
ARG_OF_PERICENTER = 226.8883
MEAN_ANOMALY   = 133.1306

EPHEMERIS_TYPE = 0
CLASSIFICATION_TYPE = U
NORAD_CAT_ID   = 65851
ELEMENT_SET_NO = 999
REV_AT_EPOCH   = 443
BSTAR          = .40922E-3
MEAN_MOTION_DOT = .4311E-4
MEAN_MOTION_DDOT = 0

CCSDS_OMM_VERS = 2.0
CREATION_DATE  = 
ORIGINATOR     = 

OBJECT_NAME    = SHIYAN-30 02
OBJECT_ID      = 2025-222B
CENTER_NAME    = EARTH
REF_FRAME      = TEME
TIME_SYSTEM    = UTC
MEAN_ELEMENT_THEORY = SGP/SGP4

EPOCH          = 2025-10-28T17:30:58.474080
MEAN_MOTION    = 14.92998985
ECCENTRICITY   = .0007445
INCLINATION    = 34.9964
RA_OF_ASC_NODE = 210.9530
ARG_OF_PERICENTER = 228.8919
MEAN_ANOMALY   = 131.1144

EPHEMERIS_TYPE = 0
CLASSIFICATION_TYPE = U
NORAD_CAT_ID   = 65852
ELEMENT_SET_NO = 999
REV_AT_EPOCH   = 441
BSTAR          = .40418E-3
MEAN_MOTION_DOT = .4258E-4
MEAN_MOTION_DDOT = 0

CCSDS_OMM_VERS = 2.0
CREATION_DATE  = 
ORIGINATOR     = 

OBJECT_NAME    = CZ-2D R/B
OBJECT_ID      = 2025-222C
CENTER_NAME    = EARTH
REF_FRAME      = TEME
TIME_SYSTEM    = UTC
MEAN_ELEMENT_THEORY = SGP/SGP4

EPOCH          = 2025-10-28T11:20:52.264896
MEAN_MOTION    = 14.99329043
ECCENTRICITY   = .00567184
INCLINATION    = 34.9021
RA_OF_ASC_NODE = 210.4453
ARG_OF_PERICENTER = 228.7245
MEAN_ANOMALY   = 130.8566

EPHEMERIS_TYPE = 0
CLASSIFICATION_TYPE = U
NORAD_CAT_ID   = 65853
ELEMENT_SET_NO = 999
REV_AT_EPOCH   = 441
BSTAR          = .22371704E-3
MEAN_MOTION_DOT = .286E-4
MEAN_MOTION_DDOT = 0

CCSDS_OMM_VERS = 2.0
CREATION_DATE  = 
ORIGINATOR     = 

OBJECT_NAME    = STARLINK-35208
OBJECT_ID      = 2025-223A
CENTER_NAME    = EARTH
REF_FRAME      = TEME
TIME_SYSTEM    = UTC
MEAN_ELEMENT_THEORY = SGP/SGP4

EPOCH          = 2025-10-28T16:00:07.000416
MEAN_MOTION    = 15.39567793
ECCENTRICITY   = .00010854
INCLINATION    = 53.1587
RA_OF_ASC_NODE = 190.0680
ARG_OF_PERICENTER = 98.9048
MEAN_ANOMALY   = 303.7654

EPHEMERIS_TYPE = 0
CLASSIFICATION_TYPE = U
NORAD_CAT_ID   = 65854
ELEMENT_SET_NO = 999
REV_AT_EPOCH   = 524
BSTAR          = .19189929E-2
MEAN_MOTION_DOT = .77005E-3
MEAN_MOTION_DDOT = 0

CCSDS_OMM_VERS = 2.0
CREATION_DATE  = 
ORIGINATOR     = 

OBJECT_NAME    = STARLINK-35200
OBJECT_ID      = 2025-223B
CENTER_NAME    = EARTH
REF_FRAME      = TEME
TIME_SYSTEM    = UTC
MEAN_ELEMENT_THEORY = SGP/SGP4

EPOCH          = 2025-10-28T13:39:34.648992
MEAN_MOTION    = 15.49359995
ECCENTRICITY   = .00006945
INCLINATION    = 53.1596
RA_OF_ASC_NODE = 190.2544
ARG_OF_PERICENTER = 81.2412
MEAN_ANOMALY   = 278.8676

EPHEMERIS_TYPE = 0
CLASSIFICATION_TYPE = U
NORAD_CAT_ID   = 65855
ELEMENT_SET_NO = 999
REV_AT_EPOCH   = 394
BSTAR          = .19364947E-2
MEAN_MOTION_DOT = .108961E-2
MEAN_MOTION_DDOT = 0

CCSDS_OMM_VERS = 2.0
CREATION_DATE  = 
ORIGINATOR     = 

OBJECT_NAME    = STARLINK-35459
OBJECT_ID      = 2025-223C
CENTER_NAME    = EARTH
REF_FRAME      = TEME
TIME_SYSTEM    = UTC
MEAN_ELEMENT_THEORY = SGP/SGP4

EPOCH          = 2025-10-28T16:00:07.000416
MEAN_MOTION    = 15.39570627
ECCENTRICITY   = .00007478
INCLINATION    = 53.1599
RA_OF_ASC_NODE = 189.9147
ARG_OF_PERICENTER = 104.8594
MEAN_ANOMALY   = 14.9773

EPHEMERIS_TYPE = 0
CLASSIFICATION_TYPE = U
NORAD_CAT_ID   = 65856
ELEMENT_SET_NO = 999
REV_AT_EPOCH   = 524
BSTAR          = .20451311E-2
MEAN_MOTION_DOT = .82156E-3
MEAN_MOTION_DDOT = 0

CCSDS_OMM_VERS = 2.0
CREATION_DATE  = 
ORIGINATOR     = 

OBJECT_NAME    = STARLINK-35489
OBJECT_ID      = 2025-223D
CENTER_NAME    = EARTH
REF_FRAME      = TEME
TIME_SYSTEM    = UTC
MEAN_ELEMENT_THEORY = SGP/SGP4

EPOCH          = 2025-10-28T13:38:35.345760
MEAN_MOTION    = 15.49362234
ECCENTRICITY   = .00006763
INCLINATION    = 53.1598
RA_OF_ASC_NODE = 190.2506
ARG_OF_PERICENTER = 71.5697
MEAN_ANOMALY   = 288.5386

EPHEMERIS_TYPE = 0
CLASSIFICATION_TYPE = U
NORAD_CAT_ID   = 65857
ELEMENT_SET_NO = 999
REV_AT_EPOCH   = 394
BSTAR          = .2084536E-2
MEAN_MOTION_DOT = .117464E-2
MEAN_MOTION_DDOT = 0

CCSDS_OMM_VERS = 2.0
CREATION_DATE  = 
ORIGINATOR     = 

OBJECT_NAME    = STARLINK-35199
OBJECT_ID      = 2025-223E
CENTER_NAME    = EARTH
REF_FRAME      = TEME
TIME_SYSTEM    = UTC
MEAN_ELEMENT_THEORY = SGP/SGP4

EPOCH          = 2025-10-28T16:00:07.000416
MEAN_MOTION    = 15.42193515
ECCENTRICITY   = .00018858
INCLINATION    = 53.1601
RA_OF_ASC_NODE = 189.8163
ARG_OF_PERICENTER = 107.6640
MEAN_ANOMALY   = 61.4458

EPHEMERIS_TYPE = 0
CLASSIFICATION_TYPE = U
NORAD_CAT_ID   = 65858
ELEMENT_SET_NO = 999
REV_AT_EPOCH   = 524
BSTAR          = -.59836024E-1
MEAN_MOTION_DOT = -.2326919E-1
MEAN_MOTION_DDOT = 0

