STARLINK-35262          
1 65847U 25221AA  25301.53678847  .00099726  00000+0  17767-2 0  9993
2 65847  53.1597 343.3540 0001509  87.3258 272.7924 15.49334286  5836
STARLINK-35308          
1 65848U 25221AB  25301.53781842  .00080161  00000+0  14338-2 0  9998
2 65848  53.1594 343.3610 0001352  94.1711 265.9453 15.49324125  5830
STARLINK-35231          
1 65849U 25221AC  25301.40811512  .00109541  00000+0  19483-2 0  9993
2 65849  53.1604 343.9710 0001269  77.0590 283.0561 15.49335270  5814
STARLINK-35252          
1 65850U 25221AD  25301.53644656  .00101741  00000+0  18115-2 0  9997
2 65850  53.1601 343.3514 0001295  84.5724 275.5433 15.49342021  5838
SHIYAN-30 01            
1 65851U 25222A   25301.73053323  .00004311  00000+0  40922-3 0  9993
2 65851  34.9878 210.9460 0006172 226.8883 133.1306 14.92998183  4433
SHIYAN-30 02            
1 65852U 25222B   25301.72984345  .00004258  00000+0  40418-3 0  9990
2 65852  34.9964 210.9530 0007445 228.8919 131.1144 14.92998985  4410
CZ-2D R/B               
1 65853U 25222C   25301.47282714  .00002860  00000+0  22372-3 0  9990
2 65853  34.9021 210.4453 0056718 228.7245 130.8566 14.99329043  4416
STARLINK-35208          
1 65854U 25223A   25301.66674769  .00077005  00000+0  19190-2 0  9994
2 65854  53.1587 190.0680 0001085  98.9048 303.7654 15.39567793  5249
STARLINK-35200          
1 65855U 25223B   25301.56915103  .00108961  00000+0  19365-2 0  9994
2 65855  53.1596 190.2544 0000694  81.2412 278.8676 15.49359995  3941
STARLINK-35459          
1 65856U 25223C   25301.66674769  .00082156  00000+0  20451-2 0  9991
2 65856  53.1599 189.9147 0000747 104.8594  14.9773 15.39570627  5249
STARLINK-35489          
1 65857U 25223D   25301.56846465  .00117464  00000+0  20845-2 0  9993
2 65857  53.1598 190.2506 0000676  71.5697 288.5386 15.49362234  3946
STARLINK-35199          
1 65858U 25223E   25301.66674769 -.02326919  00000+0 -59836-1 0  9993
2 65858  53.1601 189.8163 0001885 107.6640  61.4458 15.42193515  5247
